{
  "norad_id": 66787,
  "name": "LEMUR-2-MYRA",
  "history": [
    {
      "epoch": "2026-03-28T15:56:44.140128",
      "apogee_km": 577.928349211521,
      "perigee_km": 560.6231777072753,
      "latitude_deg": -31.263755054824717,
      "longitude_deg": -157.5176220801659,
      "semi_major_axis_km": 6947.412763459398,
      "eccentricity": 0.00124544,
      "inclination_deg": 97.5293,
      "raan_deg": 161.1922,
      "arg_perigee_deg": 56.7116,
      "mean_anomaly_deg": 303.5299,
      "mean_motion_rev_day": 14.99229464
    },
    {
      "epoch": "2026-03-29T04:45:36.390240",
      "apogee_km": 577.8674911583703,
      "perigee_km": 560.5866178092474,
      "latitude_deg": 80.88651494086203,
      "longitude_deg": -106.25956640020013,
      "semi_major_axis_km": 6947.364054483808,
      "eccentricity": 0.0012437,
      "inclination_deg": 97.5294,
      "raan_deg": 161.7083,
      "arg_perigee_deg": 55.0881,
      "mean_anomaly_deg": 305.151,
      "mean_motion_rev_day": 14.99245231
    }
  ]
}